satname,norad_id,inclination_deg,eccentricity,mean_motion_rev_per_day,perigee_km,apogee_km,l1,l2
STARLINK-1392,45677,53.1568,0.0001362,15.29354736,476.80626724827107,478.67380815334127,1 45677U 20035W   26084.47177229 -.00000104  00000+0  87241-5 0  9990,2 45677  53.1568 351.5448 0001362  81.3774 278.7381 15.29354736321176
STARLINK-1394,45679,53.0485,0.0003766,15.5237045,407.2508546615045,412.3635342287607,1 45679U 20035Y   26084.07964689  .00066429  00000+0  10692-2 0  9996,2 45679  53.0485 322.5753 0003766 186.0959 174.0005 15.52370450321549
STARLINK-1402,45685,53.0492,0.0002065,15.47254492,423.35693992835604,426.1665371073641,1 45685U 20035AE  26084.87936596  .00085601  00000+0  16437-2 0  9993,2 45685  53.0492 306.1521 0002065 254.4230 105.6549 15.47254492321856
STARLINK-1404,45686,53.1624,0.0002138,15.31705487,469.2593524084177,472.18792521757405,1 45686U 20035AF  26084.69175085  .00188230  00000+0  59250-2 0  9994,2 45686  53.1624 335.3040 0002138 117.7228 242.3990 15.31705487321424
STARLINK-1413,45689,53.1596,0.0001195,15.30206077,474.37795124876357,476.01589805675576,1 45689U 20035AJ  26084.11647200  .00007997  00000+0  28179-3 0  9994,2 45689  53.1596 337.9236 0001195  90.8352 269.2786 15.30206077321253
STARLINK-1417,45693,53.0513,0.0001653,15.13369286,524.7924702754481,527.0749560532195,1 45693U 20035AN  26084.12114661  .00016646  00000+0  93698-3 0  9999,2 45693  53.0513 344.3195 0001653 281.6350  78.4456 15.13369286321234
STARLINK-1420,45695,53.0519,0.0004215,15.56624678,394.5780959123231,400.28990226455426,1 45695U 20035AQ  26084.87177469  .00079531  00000+0  10928-2 0  9994,2 45695  53.0519 304.1564 0004215 182.1280 177.9713 15.56624678321877
STARLINK-1422,45696,53.1584,0.0001166,15.30198343,474.4209154989385,476.0191183552861,1 45696U 20035AR  26084.71168336  .00002637  00000+0  10114-3 0  9992,2 45696  53.1584 335.1633 0001166  96.9437 263.1697 15.30198343321427
STARLINK-1351,45697,53.0521,0.000398,15.55174966,398.94571961970814,404.3424253534067,1 45697U 20035AS  26084.60541802  .00102567  00000+0  14806-2 0  9998,2 45697  53.0521 304.8084 0003980 199.7880 160.2976 15.55174966321846
STARLINK-1398,45699,53.0257,0.0009888,16.19234549,215.10511499721179,228.1568161259056,1 45699U 20035AU  26084.83639003  .01684994  11803-4  89246-3 0  9995,2 45699  53.0257 215.1707 0009888 311.6827  48.3363 16.19234549323112
STARLINK-1400,45700,53.0497,0.0007514,15.53239624,402.17609922430256,412.37321586325834,1 45700U 20035AV  26084.85193092  .00069649  00000+0  10848-2 0  9999,2 45700  53.0497 305.1769 0007514 156.9733 203.1615 15.53239624321855
STARLINK-1403,45701,53.1577,0.00016,15.29354855,476.6427417917912,478.83662233005,1 45701U 20035AW  26084.87166642  .00001746  00000+0  72848-4 0  9997,2 45701  53.1577 321.4420 0001600  85.2146 274.9037 15.29354855321629
STARLINK-1407,45703,53.0317,0.0006268,15.63484275,373.3669868654233,381.83598062864985,1 45703U 20035AY  26084.83335647  .00193347  00000+0  20080-2 0  9996,2 45703  53.0317 236.8882 0006268 168.8189 240.9053 15.63484275  5812
STARLINK-1411,45706,53.0415,0.0003359,15.65307024,370.08841664929605,374.6233977843649,1 45706U 20035BB  26084.22446930  .00101883  00000+0  99872-3 0  9990,2 45706  53.0415 265.3342 0003359 212.2749 147.8061 15.65307024322359
STARLINK-1423,45710,53.0515,0.0007364,15.55603011,395.4086021945277,405.39203195511527,1 45710U 20035BF  26084.34465790  .00091762  00000+0  13054-2 0  9994,2 45710  53.0515 306.3980 0007364 172.4395 187.6727 15.55603011321784
STARLINK-1433,45711,53.0494,0.0007022,15.5779893,389.27325498020036,398.7840844467464,1 45711U 20035BG  26084.79841120  .00099255  00000+0  12998-2 0  9990,2 45711  53.0494 303.0111 0007022 167.9865 192.1315 15.57798930321874
STARLINK-1434,45712,53.055,0.0004664,15.28073546,478.37227143977634,484.7710076587482,1 45712U 20035BH  26084.59888286  .00036852  00000+0  13340-2 0  9999,2 45712  53.0550 306.2607 0004664 144.6979 215.4329 15.28073546321826
STARLINK-1465,45731,53.0493,0.0005593,15.52401742,405.9195308805047,413.51242322063354,1 45731U 20038B   26084.55797164  .00074448  00000+0  11945-2 0  9995,2 45731  53.0493 146.8713 0005593 350.3858   9.7043 15.52401742318848
STARLINK-1471,45735,53.0462,0.0001565,15.49739303,416.4245533490366,418.55158399552965,1 45735U 20038F   26084.64415653  .00027438  00000+0  49213-3 0  9996,2 45735  53.0462  65.5377 0001565  11.9048 348.1997 15.49739303320009
STARLINK-1480,45741,53.0517,0.0001318,15.54281172,403.34906124262216,405.1368966050659,1 45741U 20038M   26084.83335647  .00036900  00000+0  55963-3 0  9991,2 45741  53.0517 139.8271 0001318  68.1998 178.7743 15.54281172  5940
STARLINK-1500,45744,53.0359,0.0002802,15.35617765,457.1703881665726,461.0019680355799,1 45744U 20038Q   26084.36666570  .00020961  00000+0  60586-3 0  9991,2 45744  53.0359 119.1636 0002802 347.5838  12.5094 15.35617765319222
STARLINK-1504,45746,53.0228,0.0001033,15.54215788,403.732555833506,405.1338348358622,1 45746U 20038S   26084.63939728  .00034260  00000+0  52151-3 0  9997,2 45746  53.0228  65.1754 0001033  45.2426 314.8668 15.54215788319999
STARLINK-1506,45747,53.0765,0.0002893,15.26545001,484.16416804934306,488.1358445111773,1 45747U 20038T   26084.37465892  .00005901  00000+0  23568-3 0  9995,2 45747  53.0765 129.7899 0002893 324.0345  36.0458 15.26545001319089
STARLINK-1464,45751,53.0511,0.0003437,15.4535048,428.00837421709457,432.6885271158817,1 45751U 20038X   26084.41762706  .00040783  00000+0  84546-3 0  9999,2 45751  53.0511 129.7463 0003437 355.6849   4.4127 15.45350480319082
STARLINK-1477,45754,53.0478,0.0002387,15.15238618,518.6075852879194,521.900877261729,1 45754U 20038AA  26084.40135135  .00015393  00000+0  82361-3 0  9993,2 45754  53.0478 141.4969 0002387  30.9921 329.1212 15.15238618318914
STARLINK-1478,45755,53.0493,0.0004277,15.57787497,391.1653353455795,396.95827420318346,1 45755U 20038AB  26084.81323426  .00082948  00000+0  10907-2 0  9997,2 45755  53.0493 119.7527 0004277 346.5883  13.5014 15.57787497319244
STARLINK-1493,45759,53.0508,0.0004385,15.52767808,405.67310231104057,411.6251137277741,1 45759U 20038AF  26084.81055970  .00062525  00000+0  99295-3 0  9994,2 45759  53.0508 126.9612 0004385  50.2558 309.8837 15.52767808319140
STARLINK-1494,45760,53.0485,0.0006786,15.77079972,334.1608271559062,343.27694396378865,1 45760U 20038AG  26084.67449619  .00124193  00000+0  73921-3 0  9995,2 45760  53.0485  71.9537 0006786  59.0060 301.1626 15.77079972319914
STARLINK-1502,45764,53.0503,0.0005638,15.4945964,414.47390758128586,422.1375764171635,1 45764U 20038AL  26084.82277713  .00067912  00000+0  12114-2 0  9991,2 45764  53.0503 128.8152 0005638  41.7459 318.3978 15.49459640319136
STARLINK-1470,45772,53.0473,0.0003062,15.29213033,476.0641605990495,480.2629590618908,1 45772U 20038AU  26084.75735654  .00038577  00000+0  13479-2 0  9995,2 45772  53.0473  99.6590 0003062  46.0865 314.0386 15.29213033319532
STARLINK-1482,45773,53.1609,0.0001862,15.31276199,470.7281191314596,473.2791114966021,1 45773U 20038AV  26084.80915425  .00044049  00000+0  14417-2 0  9992,2 45773  53.1609 116.0960 0001862  61.5157 298.6032 15.31276199319318
STARLINK-1496,45780,53.0504,0.0002029,15.50677848,413.36748945388536,416.12404128007074,1 45780U 20038BC  26084.76625074  .00081613  00000+0  13912-2 0  9990,2 45780  53.0504 100.7331 0002029 319.7012  40.3846 15.50677848319508
STARLINK-1513,45786,53.1598,0.0001198,15.30181736,474.44856486259323,476.09064108466646,1 45786U 20038BJ  26084.49668609  .00001405  00000+0  59572-4 0  9992,2 45786  53.1598 117.7303 0001198  78.3946 281.7190 15.30181736319265
STARLINK-1522,46027,53.0641,0.0002425,15.09738064,535.322806750547,538.6766480633396,1 46027U 20055A   26084.63931792  .00026653  00000+0  16453-2 0  9993,2 46027  53.0641  54.5611 0002425  89.5208 270.6061 15.09738064311298
STARLINK-1523,46028,53.1574,0.0001302,15.29351243,476.8578402485091,478.643113347468,1 46028U 20055B   26084.19570066  .00006871  00000+0  25026-3 0  9995,2 46028  53.1574  54.6589 0001302  90.9024 269.2125 15.29351243311270
STARLINK-1526,46029,53.1591,0.0001361,15.29349226,476.8234176685801,478.6895918805785,1 46029U 20055C   26084.64232483  .00003111  00000+0  12012-3 0  9999,2 46029  53.1591  52.5521 0001361  86.2865 273.8291 15.29349226311339
STARLINK-1555,46032,53.1599,0.0001396,15.301737,474.33685869203237,476.2503365148832,1 46032U 20055F   26084.83335647  .00064364  00000+0  21683-2 0  9990,2 46032  53.1599  51.7132 0001396  95.0127 289.9486 15.30173700  5773
STARLINK-1556,46033,53.1561,0.0002029,15.29365589,476.3165520653147,479.09865380518477,1 46033U 20055G   26084.60540995  .00005517  00000+0  20331-3 0  9995,2 46033  53.1561  52.6761 0002029 100.6790 259.4439 15.29365589311309
STARLINK-1557,46034,53.157,0.0001726,15.29358907,476.54425017572066,478.9108946261131,1 46034U 20055H   26084.20706480  .00005273  00000+0  19491-3 0  9999,2 46034  53.1570  54.4285 0001726  96.6110 263.5087 15.29358907311248
STARLINK-1558,46035,53.1573,0.0001401,15.29352451,476.78635726355606,478.7073759229761,1 46035U 20055J   26084.62475750  .00003438  00000+0  13145-3 0  9990,2 46035  53.1573  52.6732 0001401  91.0652 269.0509 15.29352451311337
STARLINK-1560,46036,53.1566,0.000132,15.2935114,476.8458074343853,478.65576180952667,1 46036U 20055K   26084.20382509  .00000681  00000+0  35923-4 0  9990,2 46036  53.1566  54.4844 0001320  99.4018 260.7132 15.29351140311279
STARLINK-1567,46038,53.0893,0.0001641,15.49840957,416.07580228058396,418.30602890248065,1 46038U 20055M   26084.87940281  .00945751  00000+0  15287-1 0  9996,2 46038  53.0893  50.6459 0001641 121.6917 238.4252 15.49840957311372
STARLINK-1569,46039,53.1641,0.0001601,15.30183894,474.16593008847667,476.3603888195339,1 46039U 20055N   26084.62974568  .00001366  00000+0  58268-4 0  9999,2 46039  53.1641  52.6651 0001601  91.0700 269.0484 15.30183894311329
